{
  "type": "FeatureCollection",
  "features": [
    {
      "type": "Feature",
      "properties": {
        "norad_id": 29486,
        "name": "GPS BIIRM-2 (PRN 31)",
        "group": "gps-ops",
        "lat": -46.42961937906525,
        "lon": 26.979237003407516,
        "alt_km": 20468.353087140375,
        "timestamp": "2025-12-10T20:49:52.812388+00:00",
        "meta_object_name": "GPS BIIRM-2 (PRN 31)",
        "meta_object_id": "2006-042A",
        "meta_epoch": "2025-12-10T13:09:40.823424",
        "meta_mean_motion": 2.00554208,
        "meta_eccentricity": 0.01073615,
        "meta_inclination": 54.6939,
        "meta_ra_of_asc_node": 158.8276,
        "meta_arg_of_pericenter": 51.9102,
        "meta_mean_anomaly": 320.1807,
        "meta_ephemeris_type": 0,
        "meta_classification_type": "U",
        "meta_norad_cat_id": 29486,
        "meta_element_set_no": 999,
        "meta_rev_at_epoch": 14061,
        "meta_bstar": 0,
        "meta_mean_motion_dot": 7.8e-07,
        "meta_mean_motion_ddot": 0,
        "tle_line1": "1 29486U 06042A   25344.54838916  .00000078  00000+0  00000+0 0  9996",
        "tle_line2": "2 29486  54.6939 158.8276 0107361  51.9102 320.1807  2.00554208140619"
      },
      "geometry": {
        "type": "Point",
        "coordinates": [
          26.979237003407516,
          -46.42961937906525
        ]
      }
    },
    {
      "type": "Feature",
      "properties": {
        "norad_id": 29601,
        "name": "GPS BIIRM-3 (PRN 12)",
        "group": "gps-ops",
        "lat": -45.30424369397662,
        "lon": 176.3744172902526,
        "alt_km": 20382.64129898033,
        "timestamp": "2025-12-10T20:49:52.812399+00:00",
        "meta_object_name": "GPS BIIRM-3 (PRN 12)",
        "meta_object_id": "2006-052A",
        "meta_epoch": "2025-12-09T22:55:07.366368",
        "meta_mean_motion": 2.00573319,
        "meta_eccentricity": 0.00877524,
        "meta_inclination": 54.9712,
        "meta_ra_of_asc_node": 221.5087,
        "meta_arg_of_pericenter": 87.406,
        "meta_mean_anomaly": 273.6761,
        "meta_ephemeris_type": 0,
        "meta_classification_type": "U",
        "meta_norad_cat_id": 29601,
        "meta_element_set_no": 999,
        "meta_rev_at_epoch": 13961,
        "meta_bstar": 0,
        "meta_mean_motion_dot": 3e-08,
        "meta_mean_motion_ddot": 0,
        "tle_line1": "1 29601U 06052A   25343.95494637  .00000003  00000+0  00000+0 0  9996",
        "tle_line2": "2 29601  54.9712 221.5087 0087752  87.4060 273.6761  2.00573319139619"
      },
      "geometry": {
        "type": "Point",
        "coordinates": [
          176.3744172902526,
          -45.30424369397662
        ]
      }
    },
    {
      "type": "Feature",
      "properties": {
        "norad_id": 32260,
        "name": "GPS BIIRM-4 (PRN 15)",
        "group": "gps-ops",
        "lat": 52.84883236774396,
        "lon": 161.56907677817762,
        "alt_km": 19741.80771140062,
        "timestamp": "2025-12-10T20:49:52.812411+00:00",
        "meta_object_name": "GPS BIIRM-4 (PRN 15)",
        "meta_object_id": "2007-047A",
        "meta_epoch": "2025-12-10T06:15:19.310688",
        "meta_mean_motion": 2.00564571,
        "meta_eccentricity": 0.0164232,
        "meta_inclination": 53.9536,
        "meta_ra_of_asc_node": 87.861,
        "meta_arg_of_pericenter": 85.2178,
        "meta_mean_anomaly": 276.6503,
        "meta_ephemeris_type": 0,
        "meta_classification_type": "U",
        "meta_norad_cat_id": 32260,
        "meta_element_set_no": 999,
        "meta_rev_at_epoch": 13302,
        "meta_bstar": 0,
        "meta_mean_motion_dot": -1.7e-07,
        "meta_mean_motion_ddot": 0,
        "tle_line1": "1 32260U 07047A   25344.26064017 -.00000017  00000+0  00000+0 0  9992",
        "tle_line2": "2 32260  53.9536  87.8610 0164232  85.2178 276.6503  2.00564571133023"
      },
      "geometry": {
        "type": "Point",
        "coordinates": [
          161.56907677817762,
          52.84883236774396
        ]
      }
    },
    {
      "type": "Feature",
      "properties": {
        "norad_id": 32384,
        "name": "GPS BIIRM-5 (PRN 29)",
        "group": "gps-ops",
        "lat": -24.121623595516464,
        "lon": 119.84014244521728,
        "alt_km": 20125.9957845862,
        "timestamp": "2025-12-10T20:49:52.812423+00:00",
        "meta_object_name": "GPS BIIRM-5 (PRN 29)",
        "meta_object_id": "2007-062A",
        "meta_epoch": "2025-12-10T07:23:12.693984",
        "meta_mean_motion": 2.00577118,
        "meta_eccentricity": 0.0032229,
        "meta_inclination": 55.1843,
        "meta_ra_of_asc_node": 281.7435,
        "meta_arg_of_pericenter": 162.5278,
        "meta_mean_anomaly": 2.4985,
        "meta_ephemeris_type": 0,
        "meta_classification_type": "U",
        "meta_norad_cat_id": 32384,
        "meta_element_set_no": 999,
        "meta_rev_at_epoch": 13172,
        "meta_bstar": 0,
        "meta_mean_motion_dot": -6.2e-07,
        "meta_mean_motion_ddot": 0,
        "tle_line1": "1 32384U 07062A   25344.30778581 -.00000062  00000+0  00000+0 0  9999",
        "tle_line2": "2 32384  55.1843 281.7435 0032229 162.5278   2.4985  2.00577118131720"
      },
      "geometry": {
        "type": "Point",
        "coordinates": [
          119.84014244521728,
          -24.121623595516464
        ]
      }
    },
    {
      "type": "Feature",
      "properties": {
        "norad_id": 32711,
        "name": "GPS BIIRM-6 (PRN 07)",
        "group": "gps-ops",
        "lat": 37.29732249514846,
        "lon": -55.53434141349039,
        "alt_km": 20379.206709959475,
        "timestamp": "2025-12-10T20:49:52.812434+00:00",
        "meta_object_name": "GPS BIIRM-6 (PRN 07)",
        "meta_object_id": "2008-012A",
        "meta_epoch": "2025-12-09T16:22:36.528672",
        "meta_mean_motion": 2.00565456,
        "meta_eccentricity": 0.02023147,
        "meta_inclination": 54.4767,
        "meta_ra_of_asc_node": 157.4949,
        "meta_arg_of_pericenter": 244.9126,
        "meta_mean_anomaly": 112.9814,
        "meta_ephemeris_type": 0,
        "meta_classification_type": "U",
        "meta_norad_cat_id": 32711,
        "meta_element_set_no": 999,
        "meta_rev_at_epoch": 12995,
        "meta_bstar": 0,
        "meta_mean_motion_dot": 6.8e-07,
        "meta_mean_motion_ddot": 0,
        "tle_line1": "1 32711U 08012A   25343.68236723  .00000068  00000+0  00000+0 0  9991",
        "tle_line2": "2 32711  54.4767 157.4949 0202314 244.9126 112.9814  2.00565456129953"
      },
      "geometry": {
        "type": "Point",
        "coordinates": [
          -55.53434141349039,
          37.29732249514846
        ]
      }
    },
    {
      "type": "Feature",
      "properties": {
        "norad_id": 35752,
        "name": "GPS BIIRM-8 (PRN 05)",
        "group": "gps-ops",
        "lat": 20.900291745124708,
        "lon": -160.0009104925326,
        "alt_km": 20137.754518258225,
        "timestamp": "2025-12-10T20:49:52.812446+00:00",
        "meta_object_name": "GPS BIIRM-8 (PRN 05)",
        "meta_object_id": "2009-043A",
        "meta_epoch": "2025-12-10T05:14:27.337344",
        "meta_mean_motion": 2.00565787,
        "meta_eccentricity": 0.0051875,
        "meta_inclination": 56.0893,
        "meta_ra_of_asc_node": 34.8825,
        "meta_arg_of_pericenter": 81.9555,
        "meta_mean_anomaly": 322.9738,
        "meta_ephemeris_type": 0,
        "meta_classification_type": "U",
        "meta_norad_cat_id": 35752,
        "meta_element_set_no": 999,
        "meta_rev_at_epoch": 11957,
        "meta_bstar": 0,
        "meta_mean_motion_dot": -9.1e-07,
        "meta_mean_motion_ddot": 0,
        "tle_line1": "1 35752U 09043A   25344.21837196 -.00000091  00000+0  00000+0 0  9992",
        "tle_line2": "2 35752  56.0893  34.8825 0051875  81.9555 322.9738  2.00565787119571"
      },
      "geometry": {
        "type": "Point",
        "coordinates": [
          -160.0009104925326,
          20.900291745124708
        ]
      }
    },
    {
      "type": "Feature",
      "properties": {
        "norad_id": 36585,
        "name": "GPS BIIF-1  (PRN 25)",
        "group": "gps-ops",
        "lat": -54.26123988500329,
        "lon": 129.11991118884362,
        "alt_km": 20487.223846935998,
        "timestamp": "2025-12-10T20:49:52.812457+00:00",
        "meta_object_name": "GPS BIIF-1  (PRN 25)",
        "meta_object_id": "2010-022A",
        "meta_epoch": "2025-12-10T05:52:32.460096",
        "meta_mean_motion": 2.00553058,
        "meta_eccentricity": 0.0126007,
        "meta_inclination": 54.3005,
        "meta_ra_of_asc_node": 216.1746,
        "meta_arg_of_pericenter": 65.0446,
        "meta_mean_anomaly": 117.4636,
        "meta_ephemeris_type": 0,
        "meta_classification_type": "U",
        "meta_norad_cat_id": 36585,
        "meta_element_set_no": 999,
        "meta_rev_at_epoch": 11380,
        "meta_bstar": 0,
        "meta_mean_motion_dot": 1e-07,
        "meta_mean_motion_ddot": 0,
        "tle_line1": "1 36585U 10022A   25344.24482014  .00000010  00000+0  00000+0 0  9994",
        "tle_line2": "2 36585  54.3005 216.1746 0126007  65.0446 117.4636  2.00553058113803"
      },
      "geometry": {
        "type": "Point",
        "coordinates": [
          129.11991118884362,
          -54.26123988500329
        ]
      }
    }
  ]
}